{
  "norad_id": 39013,
  "name": "YAOGAN-16 01C",
  "history": [
    {
      "epoch": "2026-03-28T22:00:29.257056Z",
      "apogee_km": 1409.5043793211244,
      "perigee_km": 768.257488141765,
      "latitude_deg": -3.0204617366513813e-06,
      "longitude_deg": -19.631883497896844,
      "height_km": 799.1202290602811,
      "semi_major_axis_km": 7467.017933731445,
      "eccentricity": 0.04293862,
      "inclination_deg": 63.3542,
      "raan_deg": 136.8206,
      "arg_perigee_deg": 25.7615,
      "mean_anomaly_deg": 336.4127,
      "mean_motion_rev_day": 13.45494635
    },
    {
      "epoch": "2026-03-29T05:08:34.921248Z",
      "apogee_km": 1409.5322516383312,
      "perigee_km": 768.2275069597335,
      "latitude_deg": 3.990707764472509e-05,
      "longitude_deg": -127.71598300420965,
      "height_km": 799.0976929874374,
      "semi_major_axis_km": 7467.016879299032,
      "eccentricity": 0.0429425,
      "inclination_deg": 63.3541,
      "raan_deg": 136.0531,
      "arg_perigee_deg": 25.7638,
      "mean_anomaly_deg": 336.4108,
      "mean_motion_rev_day": 13.4549492
    },
    {
      "epoch": "2026-03-30T04:19:53.313888Z",
      "apogee_km": 1409.5684445602437,
      "perigee_km": 768.1891237789941,
      "latitude_deg": 2.4450249538394513e-05,
      "longitude_deg": -118.98974160095989,
      "height_km": 799.08265572088,
      "semi_major_axis_km": 7467.015784169619,
      "eccentricity": 0.0429475,
      "inclination_deg": 63.3543,
      "raan_deg": 133.5583,
      "arg_perigee_deg": 25.7728,
      "mean_anomaly_deg": 336.4027,
      "mean_motion_rev_day": 13.45495216
    }
  ]
}